$$SOE
2459580.500000000, A.D. 2022-Jan-01 00:00:00.0000, -2.235171731775068E+08, -1.567738732899965E+08, 8.310482906418242E+07,
2459587.500000000, A.D. 2022-Jan-08 00:00:00.0000, -2.178836726967235E+08, -1.682066687516010E+08, 7.990875209205879E+07,
2459594.500000000, A.D. 2022-Jan-15 00:00:00.0000, -2.118010451714931E+08, -1.792927833706320E+08, 7.654794017713211E+07,
2459601.500000000, A.D. 2022-Jan-22 00:00:00.0000, -2.052874430438937E+08, -1.900141213371099E+08, 7.303135157198523E+07,
2459608.500000000, A.D. 2022-Jan-29 00:00:00.0000, -1.983614727122200E+08, -2.003538234235071E+08, 6.936804777340996E+07,
2459615.500000000, A.D. 2022-Feb-05 00:00:00.0000, -1.910421259450146E+08, -2.102962500706599E+08, 6.556716504732893E+07,
2459622.500000000, A.D. 2022-Feb-12 00:00:00.0000, -1.833487135026965E+08, -2.198269616537806E+08, 6.163788779845246E+07,
2459629.500000000, A.D. 2022-Feb-19 00:00:00.0000, -1.753008023280804E+08, -2.289326941680354E+08, 5.758942407201089E+07,
2459636.500000000, A.D. 2022-Feb-26 00:00:00.0000, -1.669181575985310E+08, -2.376013316219667E+08, 5.343098319923341E+07,
2459643.500000000, A.D. 2022-Mar-05 00:00:00.0000, -1.582206894139579E+08, -2.458218762794388E+08, 4.917175545474178E+07,
2459650.500000000, A.D. 2022-Mar-12 00:00:00.0000, -1.492284037938975E+08, -2.535844173021993E+08, 4.482089362185255E+07,
2459657.500000000, A.D. 2022-Mar-19 00:00:00.0000, -1.399613577822766E+08, -2.608800982137707E+08, 4.038749637635233E+07,
2459664.500000000, A.D. 2022-Mar-26 00:00:00.0000, -1.304396184897317E+08, -2.677010835945053E+08, 3.588059339385839E+07,
2459671.500000000, A.D. 2022-Apr-02 00:00:00.0000, -1.206832258411218E+08, -2.740405254166844E+08, 3.130913206915176E+07,
2459678.500000000, A.D. 2022-Apr-09 00:00:00.0000, -1.107121585721538E+08, -2.798925293164520E+08, 2.668196571524030E+07,
2459685.500000000, A.D. 2022-Apr-16 00:00:00.0000, -1.005463029114955E+08, -2.852521204065677E+08, 2.200784315320399E+07,
2459692.500000000, A.D. 2022-Apr-23 00:00:00.0000, -9.020542499272281E+07, -2.901152077768886E+08, 1.729539979252121E+07,
2459699.500000000, A.D. 2022-Apr-30 00:00:00.0000, -7.970914863999529E+07, -2.944785501454722E+08, 1.255315009176025E+07,
2459706.500000000, A.D. 2022-May-07 00:00:00.0000, -6.907693525383085E+07, -2.983397248367503E+08, 7.789480863592267E+06,
2459713.500000000, A.D. 2022-May-14 00:00:00.0000, -5.832806421402755E+07, -3.016970972215043E+08, 3.012645450892270E+06,
2459720.500000000, A.D. 2022-May-21 00:00:00.0000, -4.748161564262992E+07, -3.045497899930570E+08, -1.769241073328942E+06,
2459727.500000000, A.D. 2022-May-28 00:00:00.0000, -3.655645581685960E+07, -3.068976533390455E+08, -6.548205810978130E+06,
2459734.500000000, A.D. 2022-Jun-04 00:00:00.0000, -2.557122476884709E+07, -3.087412363981608E+08, -1.131642119049533E+07,
2459741.500000000, A.D. 2022-Jun-11 00:00:00.0000, -1.454432574736131E+07, -3.100817600546181E+08, -1.606620746359266E+07,
2459748.500000000, A.D. 2022-Jun-18 00:00:00.0000, -3.493916328150540E+06, -3.109210910934113E+08, -2.079003462866922E+07,
2459755.500000000, A.D. 2022-Jun-25 00:00:00.0000, 7.562099025694659E+06, -3.112617177727261E+08, -2.548052385782783E+07,
2459762.500000000, A.D. 2022-Jul-02 00:00:00.0000, 1.860607525032732E+07, -3.111067268926451E+08, -3.013044850915712E+07,
2459769.500000000, A.D. 2022-Jul-09 00:00:00.0000, 2.962063236268339E+07, -3.104597821898350E+08, -3.473273480405904E+07,
2459776.500000000, A.D. 2022-Jul-16 00:00:00.0000, 4.058866063269201E+07, -3.093251029795979E+08, -3.928046213202935E+07,
2459783.500000000, A.D. 2022-Jul-23 00:00:00.0000, 5.149332318730035E+07, -3.077074429680538E+08, -4.376686283024554E+07,
2459790.500000000, A.D. 2022-Jul-30 00:00:00.0000, 6.231805625793141E+07, -3.056120725807520E+08, -4.818532177416147E+07,
2459797.500000000, A.D. 2022-Aug-06 00:00:00.0000, 7.304657078794989E+07, -3.030447641457188E+08, -5.252937610859980E+07,
2459804.500000000, A.D. 2022-Aug-13 00:00:00.0000, 8.366285468547213E+07, -3.000117771563289E+08, -5.679271486755669E+07,
2459811.500000000, A.D. 2022-Aug-20 00:00:00.0000, 9.415117425384033E+07, -2.965198440882363E+08, -6.096917842411609E+07,
2459818.500000000, A.D. 2022-Aug-27 00:00:00.0000, 1.044960749652628E+08, -2.925761574615213E+08, -6.505275787615396E+07,
2459825.500000000, A.D. 2022-Sep-03 00:00:00.0000, 1.146823819185339E+08, -2.881883582203936E+08, -6.903759443646337E+07,
2459832.500000000, A.D. 2022-Sep-10 00:00:00.0000, 1.246952001584887E+08, -2.833645253660849E+08, -7.291797886760600E+07,
2459839.500000000, A.D. 2022-Sep-17 00:00:00.0000, 1.345199149692676E+08, -2.781131668007423E+08, -7.668835099537489E+07,
2459846.500000000, A.D. 2022-Sep-24 00:00:00.0000, 1.441421922826744E+08, -2.724432113868008E+08, -8.034329933955072E+07,
2459853.500000000, A.D. 2022-Oct-01 00:00:00.0000, 1.535479795215777E+08, -2.663640021998768E+08, -8.387756091478014E+07,
2459860.500000000, A.D. 2022-Oct-08 00:00:00.0000, 1.627235073610345E+08, -2.598852904121146E+08, -8.728602122550432E+07,
2459867.500000000, A.D. 2022-Oct-15 00:00:00.0000, 1.716552915440490E+08, -2.530172285644481E+08, -9.056371429901570E+07,
2459874.500000000, A.D. 2022-Oct-22 00:00:00.0000, 1.803301326341617E+08, -2.457703648633941E+08, -9.370582271848544E+07,
2459881.500000000, A.D. 2022-Oct-29 00:00:00.0000, 1.887351162656052E+08, -2.381556410422335E+08, -9.670767811902121E+07,
2459888.500000000, A.D. 2022-Nov-05 00:00:00.0000, 1.968576160549768E+08, -2.301843909929591E+08, -9.956476213796553E+07,
2459895.500000000, A.D. 2022-Nov-12 00:00:00.0000, 2.046852972728657E+08, -2.218683388512139E+08, -1.022727075589021E+08,
2459902.500000000, A.D. 2022-Nov-19 00:00:00.0000, 2.122061206166040E+08, -2.132195974355708E+08, -1.048272996836393E+08,
2459909.500000000, A.D. 2022-Nov-26 00:00:00.0000, 2.194083464056517E+08, -2.042506673826667E+08, -1.072244780101524E+08,
2459916.500000000, A.D. 2022-Dec-03 00:00:00.0000, 2.262805394245981E+08, -1.949744369315583E+08, -1.094603382540080E+08,
2459923.500000000, A.D. 2022-Dec-10 00:00:00.0000, 2.328115745176915E+08, -1.854041822786363E+08, -1.115311347375021E+08,
2459930.500000000, A.D. 2022-Dec-17 00:00:00.0000, 2.389906430159875E+08, -1.755535684661239E+08, -1.134332831720019E+08,
2459937.500000000, A.D. 2022-Dec-24 00:00:00.0000, 2.448072601597117E+08, -1.654366508038911E+08, -1.151633638679766E+08,
2459944.500000000, A.D. 2022-Dec-31 00:00:00.0000, 2.502512739262603E+08, -1.550678766451719E+08, -1.167181254139074E+08,
2459951.500000000, A.D. 2023-Jan-07 00:00:00.0000, 2.553128754413897E+08, -1.444620864799990E+08, -1.180944887743499E+08,
2459958.500000000, A.D. 2023-Jan-14 00:00:00.0000, 2.599826090581168E+08, -1.336345137746080E+08, -1.192895516012641E+08,
2459965.500000000, A.D. 2023-Jan-21 00:00:00.0000, 2.642513815040571E+08, -1.226007866425184E+08, -1.203005929664626E+08,
2459972.500000000, A.D. 2023-Jan-28 00:00:00.0000, 2.681104738140264E+08, -1.113769314397626E+08, -1.211250788745057E+08,
2459979.500000000, A.D. 2023-Feb-04 00:00:00.0000, 2.715515558971504E+08, -9.997937514920425E+07, -1.217606683054800E+08,
2459986.500000000, A.D. 2023-Feb-11 00:00:00.0000, 2.745667020013304E+08, -8.842494664247158E+07, -1.222052196607501E+08,
2459993.500000000, A.D. 2023-Feb-18 00:00:00.0000, 2.771484070625889E+08, -7.673087753522533E+07, -1.224567976925169E+08,
2460000.500000000, A.D. 2023-Feb-25 00:00:00.0000, 2.792896042453105E+08, -6.491480268167535E+07, -1.225136809674413E+08,
2460007.500000000, A.D. 2023-Mar-04 00:00:00.0000, 2.809836838134171E+08, -5.299476016206831E+07, -1.223743698793208E+08,
2460014.500000000, A.D. 2023-Mar-11 00:00:00.0000, 2.822245133950155E+08, -4.098919062322494E+07, -1.220375952168090E+08,
2460021.500000000, A.D. 2023-Mar-18 00:00:00.0000, 2.830064597172175E+08, -2.891693587165410E+07, -1.215023272953829E+08,
2460028.500000000, A.D. 2023-Mar-25 00:00:00.0000, 2.833244120364280E+08, -1.679723660741856E+07, -1.207677856727330E+08,
2460035.500000000, A.D. 2023-Apr-01 00:00:00.0000, 2.831738076986679E+08, -4.649728733465873E+06, -1.198334494433155E+08,
2460042.500000000, A.D. 2023-Apr-08 00:00:00.0000, 2.825506592187912E+08, 7.505563174901053E+06, -1.186990679416940E+08,
2460049.500000000, A.D. 2023-Apr-15 00:00:00.0000, 2.814515805458078E+08, 1.964823433171789E+07, -1.173646717209906E+08,
2460056.500000000, A.D. 2023-Apr-22 00:00:00.0000, 2.798738143095679E+08, 3.175750728039587E+07, -1.158305842026358E+08,
2460063.500000000, A.D. 2023-Apr-29 00:00:00.0000, 2.778152627459743E+08, 4.381224098038261E+07, -1.140974340301543E+08,
2460070.500000000, A.D. 2023-May-06 00:00:00.0000, 2.752745204895879E+08, 5.579094345265643E+07, -1.121661677805535E+08,
2460077.500000000, A.D. 2023-May-13 00:00:00.0000, 2.722509081905011E+08, 6.767178733032537E+07, -1.100380629714194E+08,
2460084.500000000, A.D. 2023-May-20 00:00:00.0000, 2.687445071016458E+08, 7.943262807110406E+07, -1.077147413702290E+08,
2460091.500000000, A.D. 2023-May-27 00:00:00.0000, 2.647561947174312E+08, 9.105102505790563E+07, -1.051981825597686E+08,
2460098.500000000, A.D. 2023-Jun-03 00:00:00.0000, 2.602876813818135E+08, 1.025042658755601E+08, -1.024907376846827E+08,
2460105.500000000, A.D. 2023-Jun-10 00:00:00.0000, 2.553415477207841E+08, 1.137693940162894E+08, -9.959514329175419E+07,
2460112.500000000, A.D. 2023-Jun-17 00:00:00.0000, 2.499212827883247E+08, 1.248232402220445E+08, -9.651453517341056E+07,
2460119.500000000, A.D. 2023-Jun-24 00:00:00.0000, 2.440313230131123E+08, 1.356424577840214E+08, -9.325246212228125E+07,
2460126.500000000, A.D. 2023-Jul-01 00:00:00.0000, 2.376770919257785E+08, 1.462035628793971E+08, -8.981289941660544E+07,
2460133.500000000, A.D. 2023-Jul-08 00:00:00.0000, 2.308650386677550E+08, 1.564829810120598E+08, -8.620026165761429E+07,
2460140.500000000, A.D. 2023-Jul-15 00:00:00.0000, 2.236026736491619E+08, 1.664570969719074E+08, -8.241941490927555E+07,
$$EOE